{
    "links": {
        "self": "http://www.neowsapp.com/rest/v1/neo/3359271?api_key=iIulBulltgU6a56xZRHN4H3l9WmuAYTsLGpBGhQ2"
    },
    "id": "3359271",
    "neo_reference_id": "3359271",
    "name": "(2006 WU1)",
    "designation": "2006 WU1",
    "nasa_jpl_url": "http://ssd.jpl.nasa.gov/sbdb.cgi?sstr=3359271",
    "absolute_magnitude_h": 22.8,
    "estimated_diameter": {
        "kilometers": {
            "estimated_diameter_min": 0.0732073989,
            "estimated_diameter_max": 0.1636967205
        },
        "meters": {
            "estimated_diameter_min": 73.2073989347,
            "estimated_diameter_max": 163.696720474
        },
        "miles": {
            "estimated_diameter_min": 0.0454889547,
            "estimated_diameter_max": 0.1017163949
        },
        "feet": {
            "estimated_diameter_min": 240.181762721,
            "estimated_diameter_max": 537.0627483999
        }
    },
    "is_potentially_hazardous_asteroid": false,
    "close_approach_data": [
        {
            "close_approach_date": "2006-10-22",
            "close_approach_date_full": "2006-Oct-22 01:25",
            "epoch_date_close_approach": 1161480300000,
            "relative_velocity": {
                "kilometers_per_second": "8.1156205825",
                "kilometers_per_hour": "29216.234097129",
                "miles_per_hour": "18153.8316810744"
            },
            "miss_distance": {
                "astronomical": "0.1706803996",
                "lunar": "66.3946754444",
                "kilometers": "25533424.230908852",
                "miles": "15865734.1132200776"
            },
            "orbiting_body": "Earth"
        }
    ],
    "orbital_data": {
        "orbit_id": "7",
        "orbit_determination_date": "2017-04-06 09:07:36",
        "first_observation_date": "2006-11-19",
        "last_observation_date": "2006-11-27",
        "data_arc_in_days": 8,
        "observations_used": 15,
        "orbit_uncertainty": "9",
        "minimum_orbit_intersection": ".14292",
        "jupiter_tisserand_invariant": "3.433",
        "epoch_osculation": "2454060.5",
        "eccentricity": ".5091656694807595",
        "semi_major_axis": "2.253016021338226",
        "inclination": "7.475310212045758",
        "ascending_node_longitude": "60.13100269416675",
        "orbital_period": "1235.221513143591",
        "perihelion_distance": "1.105857610482671",
        "perihelion_argument": "311.0788644199577",
        "aphelion_distance": "3.400174432193781",
        "perihelion_time": "2454018.957697812910",
        "mean_anomaly": "12.1073253891862",
        "mean_motion": ".2914457011712934",
        "equinox": "J2000",
        "orbit_class": {
            "orbit_class_type": "AMO",
            "orbit_class_description": "Near-Earth asteroid orbits similar to that of 1221 Amor",
            "orbit_class_range": "1.017 AU < q (perihelion) < 1.3 AU"
        }
    },
    "is_sentry_object": false
}